{
  "type": "FeatureCollection",
  "features": [
    {
      "type": "Feature",
      "properties": {
        "norad_id": 19071,
        "name": "OSCAR 32",
        "group": "nnss",
        "lat": -31.218814732417613,
        "lon": -163.2464770382459,
        "alt_km": 1138.3516911172183,
        "timestamp": "2025-12-26T09:30:53.906539+00:00",
        "meta_object_name": "OSCAR 32",
        "meta_object_id": "1988-033B",
        "meta_epoch": "2025-12-26T01:22:17.949216",
        "meta_mean_motion": 13.2795587,
        "meta_eccentricity": 0.0189282,
        "meta_inclination": 90.3208,
        "meta_ra_of_asc_node": 16.9375,
        "meta_arg_of_pericenter": 129.9224,
        "meta_mean_anomaly": 257.8987,
        "meta_ephemeris_type": 0,
        "meta_classification_type": "U",
        "meta_norad_cat_id": 19071,
        "meta_element_set_no": 999,
        "meta_rev_at_epoch": 82442,
        "meta_bstar": 0.00012879,
        "meta_mean_motion_dot": 7.4e-07,
        "meta_mean_motion_ddot": 0,
        "tle_line1": "1 19071U 88033B   25360.05715219  .00000074  00000+0  12879-3 0  9996",
        "tle_line2": "2 19071  90.3208  16.9375 0189282 129.9224 257.8987 13.27955870824425"
      },
      "geometry": {
        "type": "Point",
        "coordinates": [
          -163.2464770382459,
          -31.218814732417613
        ]
      }
    },
    {
      "type": "Feature",
      "properties": {
        "norad_id": 19223,
        "name": "NOVA 2",
        "group": "nnss",
        "lat": 20.071069294161077,
        "lon": -101.7499169109307,
        "alt_km": 1195.792530806577,
        "timestamp": "2025-12-26T09:30:53.906551+00:00",
        "meta_object_name": "NOVA 2",
        "meta_object_id": "1988-052A",
        "meta_epoch": "2025-12-25T16:57:54.227232",
        "meta_mean_motion": 13.22937418,
        "meta_eccentricity": 0.00294853,
        "meta_inclination": 89.9863,
        "meta_ra_of_asc_node": 78.256,
        "meta_arg_of_pericenter": 340.9131,
        "meta_mean_anomaly": 136.6445,
        "meta_ephemeris_type": 0,
        "meta_classification_type": "U",
        "meta_norad_cat_id": 19223,
        "meta_element_set_no": 999,
        "meta_rev_at_epoch": 81119,
        "meta_bstar": 0.00013151637,
        "meta_mean_motion_dot": 6.4e-07,
        "meta_mean_motion_ddot": 0,
        "tle_line1": "1 19223U 88052A   25359.70687763  .00000064  00000+0  13152-3 0  9992",
        "tle_line2": "2 19223  89.9863  78.2560 0029485 340.9131 136.6445 13.22937418811198"
      },
      "geometry": {
        "type": "Point",
        "coordinates": [
          -101.7499169109307,
          20.071069294161077
        ]
      }
    },
    {
      "type": "Feature",
      "properties": {
        "norad_id": 19419,
        "name": "OSCAR 25",
        "group": "nnss",
        "lat": 58.39086148200433,
        "lon": -159.65706153929486,
        "alt_km": 1086.8734740899627,
        "timestamp": "2025-12-26T09:30:53.906561+00:00",
        "meta_object_name": "OSCAR 25",
        "meta_object_id": "1988-074A",
        "meta_epoch": "2025-12-26T02:01:24.098016",
        "meta_mean_motion": 13.42625663,
        "meta_eccentricity": 0.0095277,
        "meta_inclination": 90.0337,
        "meta_ra_of_asc_node": 20.2871,
        "meta_arg_of_pericenter": 207.2859,
        "meta_mean_anomaly": 207.4809,
        "meta_ephemeris_type": 0,
        "meta_classification_type": "U",
        "meta_norad_cat_id": 19419,
        "meta_element_set_no": 999,
        "meta_rev_at_epoch": 82819,
        "meta_bstar": 0.00011946,
        "meta_mean_motion_dot": 7.8e-07,
        "meta_mean_motion_ddot": 0,
        "tle_line1": "1 19419U 88074A   25360.08430669  .00000078  00000+0  11946-3 0  9991",
        "tle_line2": "2 19419  90.0337  20.2871 0095277 207.2859 207.4809 13.42625663828197"
      },
      "geometry": {
        "type": "Point",
        "coordinates": [
          -159.65706153929486,
          58.39086148200433
        ]
      }
    },
    {
      "type": "Feature",
      "properties": {
        "norad_id": 19420,
        "name": "OSCAR 31",
        "group": "nnss",
        "lat": 4.685405018129412,
        "lon": 20.637603556620885,
        "alt_km": 1169.363516540824,
        "timestamp": "2025-12-26T09:30:53.906571+00:00",
        "meta_object_name": "OSCAR 31",
        "meta_object_id": "1988-074B",
        "meta_epoch": "2025-12-26T02:39:29.801376",
        "meta_mean_motion": 13.42586716,
        "meta_eccentricity": 0.0093684,
        "meta_inclination": 90.0354,
        "meta_ra_of_asc_node": 20.6395,
        "meta_arg_of_pericenter": 201.3536,
        "meta_mean_anomaly": 223.1105,
        "meta_ephemeris_type": 0,
        "meta_classification_type": "U",
        "meta_norad_cat_id": 19420,
        "meta_element_set_no": 999,
        "meta_rev_at_epoch": 82830,
        "meta_bstar": 9.7645e-05,
        "meta_mean_motion_dot": 6.6e-07,
        "meta_mean_motion_ddot": 0,
        "tle_line1": "1 19420U 88074B   25360.11076159  .00000066  00000+0  97645-4 0  9995",
        "tle_line2": "2 19420  90.0354  20.6395 0093684 201.3536 223.1105 13.42586716828302"
      },
      "geometry": {
        "type": "Point",
        "coordinates": [
          20.637603556620885,
          4.685405018129412
        ]
      }
    }
  ]
}